SAKHACUBE-CHOLBON (RS18S)
1 67290U 25313AU  26189.15635024  .00005926  00000-0  23822-3 0  9992
2 67290  97.3924 263.9332 0007603 281.0448  78.9935 15.25275237 29170
LUCA-1 (RS90S)
1 67287U 25313AR  26189.44692330  .00005096  00000-0  20751-3 0  9999
2 67287  97.3921 264.1565 0007873 280.7830  79.2522 15.24907693 29212
QMR-KWT-2 (RS95S)
1 67291U 25313AV  26189.18975632  .00007819  00000-0  29893-3 0  9995
2 67291  97.3921 264.1878 0007224 276.6648  83.3769 15.26853112 29199
LOBACHEVSKY (RS83S)
1 67284U 25313AN  26189.51685719  .00003135  00000-0  13585-3 0  9996
2 67284  97.3914 263.8727 0008963 286.0119  74.0131 15.23096740 29206
NASBSAT-1
1 67289U 25313AT  26189.01179866  .00007507  00000-0  28995-3 0  9995
2 67289  97.3925 263.9729 0007562 279.7400  80.2984 15.26522126 29167
NASBSAT-2
1 67285U 25313AP  26189.44400498  .00003959  00000-0  16642-3 0  9999
2 67285  97.3910 263.9554 0008602 286.6691  73.3602 15.23967698 29207
HORS-5
1 67283U 25313AM  26189.55842185  .00004373  00000-0  18230-3 0  9998
2 67283  97.3928 264.1566 0008594 283.9940  76.0342 15.24193594 29227
AIST-2T 2
1 67253U 25313F   26189.46584450  .00024673  00000-0  29666-3 0  9993
2 67253  97.0798 267.0517 0006862 159.4902 200.6633 15.60816135 29945
AIST-2T 1
1 67254U 25313G   26188.15141633  .00013266  00000-0  16037-3 0  9995
2 67254  97.0830 265.6633 0006010 147.2292 212.9340 15.60809885 29729
AIST-ST (RS86S)
1 67267U 25313V   26189.48329494  .00006423  00000-0  26440-3 0  9995
2 67267  97.3929 263.9710 0011865 295.3794  64.6215 15.24407983 29207
KOWSAR 1.5
1 67264U 25313S   26189.47687870  .00003782  00000-0  16560-3 0  9993
2 67264  97.4014 263.8778 0013203 296.9259  63.0628 15.22567057 29189
PAYA
1 67255U 25313H   26189.42366307  .00000796  00000-0  54352-4 0  9991
2 67255  97.2846 256.2194 0066848 260.9658  98.4002 15.07191746 28857
GRIFON-1
1 67281U 25313AK  26188.77000131  .00003284  00000-0  14361-3 0  9997
2 67281  97.3871 262.9491 0010259 290.2367  69.7766 15.22731771 29086
GRIFON-2
1 67272U 25313AA  26189.46911857  .00006635  00000-0  27297-3 0  9995
2 67272  97.3927 263.9845 0012034 289.3834  70.6102 15.24412234 29204
GRIFON-3
1 67280U 25313AJ  26188.78189982  .00003113  00000-0  13666-3 0  9997
2 67280  97.3987 263.2171 0011513 290.7494  69.2508 15.22634963 29086
GRIFON-4
1 67261U 25313P   26189.18339156  .00010014  00000-0  37891-3 0  9995
2 67261  97.3960 264.1485 0011811 283.7580  76.2344 15.27078761 29183
MARAFON
1 67250U 25313C   26189.13589342  .00004257  00000-0  37306-3 0  9995
2 67250  97.6150 259.0620 0148228 267.1759  91.2487 14.89086097 28470
MORSAT (RS96S)
1 67262U 25313Q   26189.15814167  .00003962  00000-0  16373-3 0  9999
2 67262  97.3929 263.6368 0012605 288.5618  71.4250 15.24508742 29154
MARAFON-EXPERIMENTAL
1 67251U 25313D   26189.43706944  .00001083  00000-0  97994-4 0  9992
2 67251  97.5679 258.8608 0146991 256.3625 102.1189 14.89695306 28566
GXIBA-1
1 67684U 98067YA  26188.36126340  .00282207  00000-0  10602-2 0  9993
2 67684  51.6170 183.4288 0007039 352.5905   7.4994 15.86486144 23550
CORAL
1 67685U 98067YB  26189.51939426  .00048367  00000-0  50563-3 0  9997
2 67685  51.6249 186.0021 0008947 303.2751  56.7386 15.63921380 23624
KNACKSAT-2
1 67683U 98067XZ  26189.28582417  .00035828  00000-0  40782-3 0  9993
2 67683  51.6260 188.2015 0008209 303.7179  56.3032 15.61884949 23577
RASSVET-3 1
1 68360U 26061A   26189.42170338  .00010695  00000-0  52566-3 0  9990
2 68360  82.2912 350.3487 0000240 192.8388 167.2840 15.17926571 16799
RASSVET-3 2
1 68361U 26061B   26189.41596073  .00006244  00000-0  11472-3 0  9994
2 68361  82.2927 349.3967 0001335 213.2572 146.8594 15.49003737 16857
RASSVET-3 3
1 68362U 26061C   26189.40860455  .00002123  00000-0  10312-3 0  9996
2 68362  82.2960 352.4662 0002806 136.9450 223.2003 15.17946141 16666
RASSVET-3 5
1 68364U 26061E   26189.41519131  .00001906  00000-0  92317-4 0  9995
2 68364  82.2962 353.2933 0000493 159.3546 200.7708 15.18009156 16619
RASSVET-3 6
1 68365U 26061F   26189.41093482  .00001967  00000-0  95485-4 0  9998
2 68365  82.2944 352.9513 0002190 119.9604 240.1846 15.17936772 16638
RASSVET-3 7
1 68366U 26061G   26189.41298844  .00001741  00000-0  84201-4 0  9992
2 68366  82.2942 352.3039 0003182  93.6299 266.5298 15.17997397 16671
RASSVET-3 8
1 68367U 26061H   26189.40651364  .00004312  00000-0  15837-3 0  9997
2 68367  82.2967 349.8752 0006417 126.8205 233.3623 15.27643458 16820
RASSVET-3 9
1 68368U 26061J   26188.95659847  .00001148  00000-0  58268-4 0  9991
2 68368  82.2930 351.0007 0001737  32.6289 327.5050 15.15980295 16713
RASSVET-3 10
1 68369U 26061K   26189.19721452  .00062040  00000-0  30502-3 0  9999
2 68369  82.2881 347.5788 0007832  78.2303 281.9842 15.81912798 16943
RASSVET-3 11
1 68370U 26061L   26189.13434007 -.00505427  00000-0 -43172-2 0  9991
2 68370  82.2928 348.8271 0007099 107.0471 253.1569 15.70849688 16863
RASSVET-3 12
1 68371U 26061M   26189.41735440  .00002424  00000-0  11778-3 0  9993
2 68371  82.2945 352.9517 0001140  38.0708 322.0605 15.18006211 16630
RASSVET-3 13
1 68372U 26061N   26189.45648303  .00002372  00000-0  97709-4 0  9990
2 68372  82.2964 352.5647 0005064  33.9012 326.2547 15.23629684 16668
RASSVET-3 14
1 68373U 26061P   26188.94132693  .00025753  00000-0  18568-3 0  9997
2 68373  82.2934 349.2073 0007731  51.6789 308.5167 15.73343454 16825
RASSVET-3 15
1 68374U 26061Q   26189.55103414  .00005106  00000-0  16425-3 0  9995
2 68374  82.2974 349.4493 0007633 121.4713 238.7275 15.31975480 16864
RASSVET-3 16
1 68375U 26061R   26189.42960981  .00001674  00000-0  73411-4 0  9997
2 68375  82.2934 350.5516 0010213 180.8506 179.2714 15.21265097 16780
HADES-SA (SPINNYONE)
1 68446U 26067AG  26189.36171780  .00011956  00000-0  56034-3 0  9991
2 68446  97.4409 147.3516 0007025  25.8019 334.3565 15.19822538 15143
OBZP1
1 90000U 00001A   26082.73220162  .00000000  00000-0  52294-3 0    10
2 90000  82.2945 108.6614 0025130  78.3270   5.7283 15.88315102    15
